LEMUR-2-ROUNDTRIPPER    
1 62711U 25009DG  26170.48918328  .00007350  00000+0  53855-3 0  9995
2 62711  97.7253 253.1657 0005565 124.2524 235.9229 15.03824218 77978
LEMUR-2-MYNAMEISJEFF    
1 62712U 25009DH  26170.68719941  .00006627  00000+0  48605-3 0  9991
2 62712  97.7298 253.7459 0003831 144.8140 215.3339 15.03830398 78005
LEMUR-2-LEIA-PHILIP     
1 63246U 25052AN  26170.67596410  .00000483  00000+0  46555-4 0  9992
2 63246  97.6834  62.5854 0002825 201.8869 158.2233 14.97323073 69043
LEMUR-2-LIA-MARTIN      
1 63248U 25052AQ  26170.68021235  .00002874  00000+0  24948-3 0  9990
2 63248  97.6886  63.0682 0003017 154.4867 205.6505 14.97817180 69059
LEMUR-2-DELOITTE-1      
1 63259U 25052BB  26170.65693242  .00003522  00000+0  30614-3 0  9990
2 63259  97.6922  63.3737 0003546  92.0664 268.0964 14.97621203 69067
LEMUR-2-EMERSONROSE     
1 63261U 25052BD  26170.69642749  .00002855  00000+0  23988-3 0  9997
2 63261  97.6877  63.9759 0001734  70.4083 289.7327 14.99092847 69118
LEMUR-2-MARACHE-FRAN    
1 63262U 25052BE  26170.67003801  .00004029  00000+0  32763-3 0  9992
2 63262  97.6934  64.2723 0005105  14.0732 346.0632 15.00121451 69134
LEMUR-2-THEFALCONER     
1 63264U 25052BG  26170.68366523  .00002473  00000+0  21767-3 0  9991
2 63264  97.6852  63.0182 0002341  25.2205 334.9130 14.97400156 69067
LEMUR-2-UNTITLED-SC     
1 63351U 25061A   26170.86551250  .00003148  00000+0  17907-3 0  9992
2 63351  97.5638 146.2078 0016993 254.3090 105.6267 15.13492685 67999
LEMUR-2-ESPERANZA       
1 63352U 25061B   26170.37971118  .00002531  00000+0  14440-3 0  9992
2 63352  97.5645 145.8194 0016546 255.4833 104.4562 15.13581763 67927
LEMUR-2-KREMPEL-BRO2    
1 63353U 25061C   26170.47214873  .00003115  00000+0  17460-3 0  9996
2 63353  97.5692 146.4474 0017582 246.8225 113.1154 15.14019360 67955
LEMUR-2-THERMORAPTOR    
1 63354U 25061D   26170.38800742  .00002881  00000+0  16142-3 0  9998
2 63354  97.5696 146.4399 0017274 245.9615 113.9809 15.14099260 67948
LEMUR-2-NEUROSPICY      
1 63355U 25061E   26170.88817734  .00003184  00000+0  17757-3 0  9993
2 63355  97.5626 146.5613 0015112 247.7188 112.2441 15.14216694 68022
LEMUR-2-TILLINFINITY    
1 63356U 25061F   26170.85633997  .00002794  00000+0  15370-3 0  9993
2 63356  97.5608 146.8219 0016508 234.9906 124.9777 15.14802135 68049
LEMUR-2-KREMPEL-BRO1    
1 63357U 25061G   26170.49982563  .00002798  00000+0  15469-3 0  9993
2 63357  97.5612 146.3830 0017107 237.7923 122.1651 15.14604861 67984
LEMUR-2-LANGER2SPACE    
1 63358U 25061H   26170.46071311  .00002854  00000+0  15920-3 0  9996
2 63358  97.5616 146.1570 0014996 247.5926 112.3717 15.14302187 67961
LEMUR-2-BALTO           
1 63395U 25052BH  26170.65475058  .00004912  00000+0  39840-3 0  9998
2 63395  97.6898  64.2339 0006887  51.6334 308.5507 15.00110106 69135
LEMUR-2-KRISH           
1 64561U 25135AK  26170.74941550  .00003812  00000+0  34302-3 0  9997
2 64561  97.7755 285.6081 0001661  97.4201 262.7209 14.96229980 54301
LEMUR-2-HUBBLE-4        
1 64565U 25135AP  26170.54879787  .00001095  00000+0  11027-3 0  9991
2 64565  97.7702 284.4259 0000897 288.3995  71.7127 14.93203864 54220
LEMUR-2-SEJONG-2        
1 64586U 25135BL  26170.84541532  .00003292  00000+0  29332-3 0  9990
2 64586  97.7686 285.8479 0003566 327.4588  32.6413 14.96711958 54340
LEMUR-2-HUBBLE-5        
1 64840U 25135BT  26170.56835256  .00000791  00000+0  79278-4 0  9997
2 64840  97.7721 285.0832 0004883 345.1307  14.9769 14.94140444 54269
LEMUR-2-KARENDARRELL    
1 64841U 25135BU  26170.78628722  .00006430  00000+0  51931-3 0  9991
2 64841  97.7681 286.9897 0009886 192.0079 168.0910 15.00141029 54402
LEMUR-2-LUCILLE-ROSE    
1 65403U 25135BV  26170.55981887  .00005018  00000+0  40597-3 0  9992
2 65403  97.7764 286.7860 0011401 273.6348  86.3572 15.00176766 48997
LEMUR-2-AFFIE-WAUWIE    
1 66295U 25248C   26170.14891995  .00015354  00000+0  57489-3 0  9994
2 66295  45.3921 104.3599 0007326  97.1817 262.9905 15.27203290 34894
LEMUR-2-DEANANDMAEVE    
1 66678U 25276N   26170.68500666  .00005498  00000+0  26013-3 0  9998
2 66678  97.4207 244.1192 0005461   6.3008 353.8294 15.19758314 30797
LEMUR-2-STAS-GORBUK     
1 66686U 25276W   26170.70009193  .00004458  00000+0  21374-3 0  9999
2 66686  97.4242 244.1889 0004855   7.1231 353.0072 15.19402422 30793
LEMUR-2-TEODOR          
1 66768U 25276DG  26170.87847713  .00004857  00000+0  22168-3 0  9991
2 66768  97.4147 244.6041 0002230 114.3450 245.8019 15.21074312 30854
LEMUR-2-LAILA           
1 66776U 25276DQ  26170.72044965  .00004453  00000+0  20220-3 0  9991
2 66776  97.4170 244.5708 0002365 132.5690 227.5746 15.21294575 30832
LEMUR-2-CELIJO-SB-PK    
1 66781U 25276DW  26170.70492546  .00005277  00000+0  42853-3 0  9998
2 66781  97.5242 241.4003 0008593 126.6428 233.5587 15.00003232 23001
LEMUR-2-FINNIAN         
1 66782U 25276DX  26170.74792521  .00005594  00000+0  44925-3 0  9993
2 66782  97.5291 241.6582 0008909  81.8955 278.3279 15.00405471 20382
